{"type": "FeatureCollection", "features": [ {"type": "Feature", "properties": {"norad_id": 34529, "name": "IRIDIUM 33 DEB", "group": "iridium-33-debris", "lat": -53.487334784823624, "lon": -138.15351964699872, "alt_km": 761.4046831072637, "timestamp": "2025-12-09T04:51:47.876839+00:00", "meta": {"OBJECT_NAME": "IRIDIUM 33 DEB", "OBJECT_ID": "1997-051HW", "EPOCH": "2025-12-08T04:26:38.874624", "MEAN_MOTION": 14.40610073, "ECCENTRICITY": 0.00042345, "INCLINATION": 86.3644, "RA_OF_ASC_NODE": 37.3532, "ARG_OF_PERICENTER": 192.5106, "MEAN_ANOMALY": 167.5989, "EPHEMERIS_TYPE": 0, "CLASSIFICATION_TYPE": "U", "NORAD_CAT_ID": 34529, "ELEMENT_SET_NO": 999, "REV_AT_EPOCH": 88076, "BSTAR": 0.00018799813, "MEAN_MOTION_DOT": 6.19e-06, "MEAN_MOTION_DDOT": 0}, "tle": {"line1": "1 34529U 97051HW  25342.18517216  .00000619  00000+0  18800-3 0  9997", "line2": "2 34529  86.3644  37.3532 0004234 192.5106 167.5989 14.40610073880766"}}, "geometry": {"type": "Point", "coordinates": [-138.15351964699872, -53.487334784823624]}}, {"type": "Feature", "properties": {"norad_id": 34538, "name": "IRIDIUM 33 DEB", "group": "iridium-33-debris", "lat": 45.102580817548606, "lon": 10.85174687804322, "alt_km": 736.0618819629963, "timestamp": "2025-12-09T04:51:47.876849+00:00", "meta": {"OBJECT_NAME": "IRIDIUM 33 DEB", "OBJECT_ID": "1997-051JF", "EPOCH": "2025-12-08T12:43:03.891360", "MEAN_MOTION": 14.42610474, "ECCENTRICITY": 0.00333253, "INCLINATION": 86.2772, "RA_OF_ASC_NODE": 7.3997, "ARG_OF_PERICENTER": 342.2911, "MEAN_ANOMALY": 171.1189, "EPHEMERIS_TYPE": 0, "CLASSIFICATION_TYPE": "U", "NORAD_CAT_ID": 34538, "ELEMENT_SET_NO": 999, "REV_AT_EPOCH": 87695, "BSTAR": 0.0013892431, "MEAN_MOTION_DOT": 4.663e-05, "MEAN_MOTION_DDOT": 0}, "tle": {"line1": "1 34538U 97051JF  25342.52990615  .00004663  00000+0  13892-2 0  9991", "line2": "2 34538  86.2772   7.3997 0033325 342.2911 171.1189 14.42610474876956"}}, "geometry": {"type": "Point", "coordinates": [10.85174687804322, 45.102580817548606]}}, {"type": "Feature", "properties": {"norad_id": 34540, "name": "IRIDIUM 33 DEB", "group": "iridium-33-debris", "lat": 47.8660917450469, "lon": -46.68677490451042, "alt_km": 646.4575476214332, "timestamp": "2025-12-09T04:51:47.876859+00:00", "meta": {"OBJECT_NAME": "IRIDIUM 33 DEB", "OBJECT_ID": "1997-051JH", "EPOCH": "2025-12-08T16:26:16.783008", "MEAN_MOTION": 14.75185439, "ECCENTRICITY": 0.0015702, "INCLINATION": 86.3111, "RA_OF_ASC_NODE": 309.4602, "ARG_OF_PERICENTER": 173.5881, "MEAN_ANOMALY": 6.9774, "EPHEMERIS_TYPE": 0, "CLASSIFICATION_TYPE": "U", "NORAD_CAT_ID": 34540, "ELEMENT_SET_NO": 999, "REV_AT_EPOCH": 88961, "BSTAR": 0.0023969, "MEAN_MOTION_DOT": 0.00016265, "MEAN_MOTION_DDOT": 0}, "tle": {"line1": "1 34540U 97051JH  25342.68491647  .00016265  00000+0  23969-2 0  9999", "line2": "2 34540  86.3111 309.4602 0015702 173.5881   6.9774 14.75185439889612"}}, "geometry": {"type": "Point", "coordinates": [-46.68677490451042, 47.8660917450469]}}, {"type": "Feature", "properties": {"norad_id": 34648, "name": "IRIDIUM 33 DEB", "group": "iridium-33-debris", "lat": -73.64144690750577, "lon": -89.04115407429265, "alt_km": 740.1990195172348, "timestamp": "2025-12-09T04:51:47.876869+00:00", "meta": {"OBJECT_NAME": "IRIDIUM 33 DEB", "OBJECT_ID": "1997-051JZ", "EPOCH": "2025-12-08T20:41:39.003936", "MEAN_MOTION": 14.11300262, "ECCENTRICITY": 0.0183955, "INCLINATION": 86.3913, "RA_OF_ASC_NODE": 283.5113, "ARG_OF_PERICENTER": 310.9542, "MEAN_ANOMALY": 47.5843, "EPHEMERIS_TYPE": 0, "CLASSIFICATION_TYPE": "U", "NORAD_CAT_ID": 34648, "ELEMENT_SET_NO": 999, "REV_AT_EPOCH": 84906, "BSTAR": 0.013206, "MEAN_MOTION_DOT": 0.00028062, "MEAN_MOTION_DDOT": 0}, "tle": {"line1": "1 34648U 97051JZ  25342.86225699  .00028062  00000+0  13206-1 0  9990", "line2": "2 34648  86.3913 283.5113 0183955 310.9542  47.5843 14.11300262849063"}}, "geometry": {"type": "Point", "coordinates": [-89.04115407429265, -73.64144690750577]}}, {"type": "Feature", "properties": {"norad_id": 34651, "name": "IRIDIUM 33 DEB", "group": "iridium-33-debris", "lat": 19.209746880622763, "lon": -39.21530233916713, "alt_km": 746.1374254727061, "timestamp": "2025-12-09T04:51:47.876880+00:00", "meta": {"OBJECT_NAME": "IRIDIUM 33 DEB", "OBJECT_ID": "1997-051KC", "EPOCH": "2025-12-08T11:15:25.709184", "MEAN_MOTION": 14.25701829, "ECCENTRICITY": 0.01419793, "INCLINATION": 86.2851, "RA_OF_ASC_NODE": 142.3937, "ARG_OF_PERICENTER": 217.4974, "MEAN_ANOMALY": 141.625, "EPHEMERIS_TYPE": 0, "CLASSIFICATION_TYPE": "U", "NORAD_CAT_ID": 34651, "ELEMENT_SET_NO": 999, "REV_AT_EPOCH": 85835, "BSTAR": 0.0043129114, "MEAN_MOTION_DOT": 0.00011398, "MEAN_MOTION_DDOT": 0}, "tle": {"line1": "1 34651U 97051KC  25342.46904756  .00011398  00000+0  43129-2 0  9990", "line2": "2 34651  86.2851 142.3937 0141979 217.4974 141.6250 14.25701829858352"}}, "geometry": {"type": "Point", "coordinates": [-39.21530233916713, 19.209746880622763]}}, {"type": "Feature", "properties": {"norad_id": 34652, "name": "IRIDIUM 33 DEB", "group": "iridium-33-debris", "lat": 67.56446215847015, "lon": 152.6356360455916, "alt_km": 697.7890090532437, "timestamp": "2025-12-09T04:51:47.876890+00:00", "meta": {"OBJECT_NAME": "IRIDIUM 33 DEB", "OBJECT_ID": "1997-051KD", "EPOCH": "2025-12-08T10:58:52.274208", "MEAN_MOTION": 14.61994532, "ECCENTRICITY": 0.00263276, "INCLINATION": 86.3309, "RA_OF_ASC_NODE": 341.9078, "ARG_OF_PERICENTER": 313.8102, "MEAN_ANOMALY": 199.1921, "EPHEMERIS_TYPE": 0, "CLASSIFICATION_TYPE": "U", "NORAD_CAT_ID": 34652, "ELEMENT_SET_NO": 999, "REV_AT_EPOCH": 88421, "BSTAR": 0.0013948529, "MEAN_MOTION_DOT": 7.048e-05, "MEAN_MOTION_DDOT": 0}, "tle": {"line1": "1 34652U 97051KD  25342.45754947  .00007048  00000+0  13949-2 0  9999", "line2": "2 34652  86.3309 341.9078 0026327 313.8102 199.1921 14.61994532884210"}}, "geometry": {"type": "Point", "coordinates": [152.6356360455916, 67.56446215847015]}}, {"type": "Feature", "properties": {"norad_id": 34690, "name": "IRIDIUM 33 DEB", "group": "iridium-33-debris", "lat": 62.96584404637496, "lon": 45.659053457535926, "alt_km": 695.6886686623939, "timestamp": "2025-12-09T04:51:47.876900+00:00", "meta": {"OBJECT_NAME": "IRIDIUM 33 DEB", "OBJECT_ID": "1997-051KM", "EPOCH": "2025-12-08T10:30:30.417984", "MEAN_MOTION": 14.55072153, "ECCENTRICITY": 0.0011347, "INCLINATION": 86.3781, "RA_OF_ASC_NODE": 38.8609, "ARG_OF_PERICENTER": 42.3651, "MEAN_ANOMALY": 337.2533, "EPHEMERIS_TYPE": 0, "CLASSIFICATION_TYPE": "U", "NORAD_CAT_ID": 34690, "ELEMENT_SET_NO": 999, "REV_AT_EPOCH": 88032, "BSTAR": 0.00077031918, "MEAN_MOTION_DOT": 3.344e-05, "MEAN_MOTION_DDOT": 0}, "tle": {"line1": "1 34690U 97051KM  25342.43785206  .00003344  00000+0  77032-3 0  9990", "line2": "2 34690  86.3781  38.8609 0011347  42.3651 337.2533 14.55072153880328"}}, "geometry": {"type": "Point", "coordinates": [45.659053457535926, 62.96584404637496]}}, {"type": "Feature", "properties": {"norad_id": 34693, "name": "IRIDIUM 33 DEB", "group": "iridium-33-debris", "lat": -84.84982645554165, "lon": -100.21095772855578, "alt_km": 501.6002215351409, "timestamp": "2025-12-09T04:51:47.876910+00:00", "meta": {"OBJECT_NAME": "IRIDIUM 33 DEB", "OBJECT_ID": "1997-051KQ", "EPOCH": "2025-12-08T15:50:05.258976", "MEAN_MOTION": 15.26461537, "ECCENTRICITY": 0.0014846, "INCLINATION": 86.3061, "RA_OF_ASC_NODE": 305.849, "ARG_OF_PERICENTER": 59.4216, "MEAN_ANOMALY": 113.0405, "EPHEMERIS_TYPE": 0, "CLASSIFICATION_TYPE": "U", "NORAD_CAT_ID": 34693, "ELEMENT_SET_NO": 999, "REV_AT_EPOCH": 88852, "BSTAR": 0.0056203, "MEAN_MOTION_DOT": 0.00149619, "MEAN_MOTION_DDOT": 0}, "tle": {"line1": "1 34693U 97051KQ  25342.65978309  .00149619  00000+0  56203-2 0  9997", "line2": "2 34693  86.3061 305.8490 0014846  59.4216 113.0405 15.26461537888525"}}, "geometry": {"type": "Point", "coordinates": [-100.21095772855578, -84.84982645554165]}}, {"type": "Feature", "properties": {"norad_id": 34696, "name": "IRIDIUM 33 DEB", "group": "iridium-33-debris", "lat": 74.86124536676894, "lon": 43.44731942516108, "alt_km": 683.0679229457601, "timestamp": "2025-12-09T04:51:47.876920+00:00", "meta": {"OBJECT_NAME": "IRIDIUM 33 DEB", "OBJECT_ID": "1997-051KT", "EPOCH": "2025-12-08T14:27:39.651264", "MEAN_MOTION": 14.64750758, "ECCENTRICITY": 0.0074318, "INCLINATION": 86.1849, "RA_OF_ASC_NODE": 29.4472, "ARG_OF_PERICENTER": 181.4638, "MEAN_ANOMALY": 332.3745, "EPHEMERIS_TYPE": 0, "CLASSIFICATION_TYPE": "U", "NORAD_CAT_ID": 34696, "ELEMENT_SET_NO": 999, "REV_AT_EPOCH": 86612, "BSTAR": 0.0061608, "MEAN_MOTION_DOT": 0.00034329, "MEAN_MOTION_DDOT": 0}, "tle": {"line1": "1 34696U 97051KT  25342.60254226  .00034329  00000+0  61608-2 0  9996", "line2": "2 34696  86.1849  29.4472 0074318 181.4638 332.3745 14.64750758866125"}}, "geometry": {"type": "Point", "coordinates": [43.44731942516108, 74.86124536676894]}}, {"type": "Feature", "properties": {"norad_id": 34765, "name": "IRIDIUM 33 DEB", "group": "iridium-33-debris", "lat": -81.2116330996457, "lon": 9.819091276137785, "alt_km": 758.1375153837907, "timestamp": "2025-12-09T04:51:47.876930+00:00", "meta": {"OBJECT_NAME": "IRIDIUM 33 DEB", "OBJECT_ID": "1997-051LJ", "EPOCH": "2025-12-08T02:42:04.212864", "MEAN_MOTION": 14.40446834, "ECCENTRICITY": 0.00149899, "INCLINATION": 86.3396, "RA_OF_ASC_NODE": 34.7471, "ARG_OF_PERICENTER": 227.7302, "MEAN_ANOMALY": 160.9531, "EPHEMERIS_TYPE": 0, "CLASSIFICATION_TYPE": "U", "NORAD_CAT_ID": 34765, "ELEMENT_SET_NO": 999, "REV_AT_EPOCH": 87547, "BSTAR": 0.00060973087, "MEAN_MOTION_DOT": 1.958e-05, "MEAN_MOTION_DDOT": 0}, "tle": {"line1": "1 34765U 97051LJ  25342.11254876  .00001958  00000+0  60973-3 0  9997", "line2": "2 34765  86.3396  34.7471 0014989 227.7302 160.9531 14.40446834875476"}}, "geometry": {"type": "Point", "coordinates": [9.819091276137785, -81.2116330996457]}}]}